ISS (ZARYA)             
1 25544U 98067A   26064.57663400  .00008552  00000+0  16617-3 0  9992
2 25544  51.6316  92.6910 0008154 159.9772 200.1537 15.48460413555693
POISK                   
1 36086U 09060A   26064.57663400  .00008552  00000+0  16617-3 0  9990
2 36086  51.6316  92.6910 0008154 159.9772 200.1537 15.48460413554448
CSS (TIANHE)            
1 48274U 21035A   26064.55578758  .00019337  00000+0  23188-3 0  9991
2 48274  41.4657 233.3100 0006864 247.1832 112.8282 15.60433514276963
ISS (NAUKA)             
1 49044U 21066A   26064.57663400  .00008552  00000+0  16617-3 0  9998
2 49044  51.6316  92.6910 0008154 159.9772 200.1537 15.48460413554457
FREGAT DEB              
1 49271U 11037PF  26062.07347650  .00033502  00000+0  49339-1 0  9994
2 49271  51.6509 320.5956 0955180  44.2014 323.1255 12.39774562211870
CSS (WENTIAN)           
1 53239U 22085A   26064.55578758  .00019337  00000+0  23188-3 0  9994
2 53239  41.4657 233.3100 0006864 247.1832 112.8282 15.60433514275611
CSS (MENGTIAN)          
1 54216U 22143A   26064.55578758  .00019337  00000+0  23188-3 0  9995
2 54216  41.4657 233.3100 0006864 247.1832 112.8282 15.60433514275583
PROGRESS-MS 31          
1 64751U 25146A   26064.57663400  .00008552  00000+0  16617-3 0  9993
2 64751  51.6316  92.6910 0008154 159.9772 200.1537 15.48460413554460
TIANZHOU-9              
1 64786U 25149A   26064.55578758  .00019337  00000+0  23188-3 0  9997
2 64786  41.4657 233.3100 0006864 247.1832 112.8282 15.60433514275597
PROGRESS-MS 32          
1 65586U 25204A   26064.57663400  .00008552  00000+0  16617-3 0  9995
2 65586  51.6316  92.6910 0008154 159.9772 200.1537 15.48460413554502
CYGNUS NG-23            
1 65616U 25208A   26064.57663400  .00008552  00000+0  16617-3 0  9993
2 65616  51.6316  92.6910 0008154 159.9772 200.1537 15.48460413554517
ISS OBJECT XK           
1 65731U 98067XK  26064.42288087  .01235340  97089-3  12997-2 0  9993
2 65731  51.6145  68.9863 0004832  74.1567 285.9979 16.09887648 26210
YOTSUBA-KULOVER         
1 65941U 98067XN  26064.21355566  .00206402  00000+0  11390-2 0  9995
2 65941  51.6207  80.4741 0006006  39.9520 320.1922 15.78483235 22797
E-KAGAKU-1              
1 65943U 98067XQ  26064.21711258  .00195636  00000+0  10949-2 0  9996
2 65943  51.6242  80.5167 0006194  46.2025 313.9487 15.78200281 22794
HRC MONOBLOCK CAMERA    
1 66052U 98067XR  26064.34966105  .00057407  00000+0  65457-3 0  9993
2 66052  51.6271  87.4281 0003445  72.3165 287.8204 15.61660295 21716
HTV-X1                  
1 66174U 25241A   26064.57663400  .00008552  00000+0  16617-3 0  9990
2 66174  51.6316  92.6910 0008154 159.9772 200.1537 15.48460413554472
