[{"OBJECT_NAME":"ISS (ZARYA)","OBJECT_ID":"1998-067A","EPOCH":"2026-03-05T13:50:21.177600","MEAN_MOTION":15.48460413,"ECCENTRICITY":0.00081549,"INCLINATION":51.6316,"RA_OF_ASC_NODE":92.691,"ARG_OF_PERICENTER":159.9772,"MEAN_ANOMALY":200.1537,"EPHEMERIS_TYPE":0,"CLASSIFICATION_TYPE":"U","NORAD_CAT_ID":25544,"ELEMENT_SET_NO":999,"REV_AT_EPOCH":55569,"BSTAR":0.00016617363,"MEAN_MOTION_DOT":8.552e-5,"MEAN_MOTION_DDOT":0},{"OBJECT_NAME":"POISK","OBJECT_ID":"2009-060A","EPOCH":"2026-03-05T13:50:21.177600","MEAN_MOTION":15.48460413,"ECCENTRICITY":0.00081549,"INCLINATION":51.6316,"RA_OF_ASC_NODE":92.691,"ARG_OF_PERICENTER":159.9772,"MEAN_ANOMALY":200.1537,"EPHEMERIS_TYPE":0,"CLASSIFICATION_TYPE":"U","NORAD_CAT_ID":36086,"ELEMENT_SET_NO":999,"REV_AT_EPOCH":55444,"BSTAR":0.00016617363,"MEAN_MOTION_DOT":8.552e-5,"MEAN_MOTION_DDOT":0},{"OBJECT_NAME":"CSS (TIANHE)","OBJECT_ID":"2021-035A","EPOCH":"2026-03-05T13:20:20.046912","MEAN_MOTION":15.60433514,"ECCENTRICITY":0.00068649,"INCLINATION":41.4657,"RA_OF_ASC_NODE":233.31,"ARG_OF_PERICENTER":247.1832,"MEAN_ANOMALY":112.8282,"EPHEMERIS_TYPE":0,"CLASSIFICATION_TYPE":"U","NORAD_CAT_ID":48274,"ELEMENT_SET_NO":999,"REV_AT_EPOCH":27696,"BSTAR":0.00023188471,"MEAN_MOTION_DOT":0.00019337,"MEAN_MOTION_DDOT":0},{"OBJECT_NAME":"ISS (NAUKA)","OBJECT_ID":"2021-066A","EPOCH":"2026-03-05T13:50:21.177600","MEAN_MOTION":15.48460413,"ECCENTRICITY":0.00081549,"INCLINATION":51.6316,"RA_OF_ASC_NODE":92.691,"ARG_OF_PERICENTER":159.9772,"MEAN_ANOMALY":200.1537,"EPHEMERIS_TYPE":0,"CLASSIFICATION_TYPE":"U","NORAD_CAT_ID":49044,"ELEMENT_SET_NO":999,"REV_AT_EPOCH":55445,"BSTAR":0.00016617363,"MEAN_MOTION_DOT":8.552e-5,"MEAN_MOTION_DDOT":0},{"OBJECT_NAME":"FREGAT DEB","OBJECT_ID":"2011-037PF","EPOCH":"2026-03-03T01:45:48.369600","MEAN_MOTION":12.39774562,"ECCENTRICITY":0.09551804,"INCLINATION":51.6509,"RA_OF_ASC_NODE":320.5956,"ARG_OF_PERICENTER":44.2014,"MEAN_ANOMALY":323.1255,"EPHEMERIS_TYPE":0,"CLASSIFICATION_TYPE":"U","NORAD_CAT_ID":49271,"ELEMENT_SET_NO":999,"REV_AT_EPOCH":21187,"BSTAR":0.049338911,"MEAN_MOTION_DOT":0.00033502,"MEAN_MOTION_DDOT":0},{"OBJECT_NAME":"CSS (WENTIAN)","OBJECT_ID":"2022-085A","EPOCH":"2026-03-05T13:20:20.046912","MEAN_MOTION":15.60433514,"ECCENTRICITY":0.00068649,"INCLINATION":41.4657,"RA_OF_ASC_NODE":233.31,"ARG_OF_PERICENTER":247.1832,"MEAN_ANOMALY":112.8282,"EPHEMERIS_TYPE":0,"CLASSIFICATION_TYPE":"U","NORAD_CAT_ID":53239,"ELEMENT_SET_NO":999,"REV_AT_EPOCH":27561,"BSTAR":0.00023188471,"MEAN_MOTION_DOT":0.00019337,"MEAN_MOTION_DDOT":0},{"OBJECT_NAME":"CSS (MENGTIAN)","OBJECT_ID":"2022-143A","EPOCH":"2026-03-05T13:20:20.046912","MEAN_MOTION":15.60433514,"ECCENTRICITY":0.00068649,"INCLINATION":41.4657,"RA_OF_ASC_NODE":233.31,"ARG_OF_PERICENTER":247.1832,"MEAN_ANOMALY":112.8282,"EPHEMERIS_TYPE":0,"CLASSIFICATION_TYPE":"U","NORAD_CAT_ID":54216,"ELEMENT_SET_NO":999,"REV_AT_EPOCH":27558,"BSTAR":0.00023188471,"MEAN_MOTION_DOT":0.00019337,"MEAN_MOTION_DDOT":0},{"OBJECT_NAME":"PROGRESS-MS 31","OBJECT_ID":"2025-146A","EPOCH":"2026-03-05T13:50:21.177600","MEAN_MOTION":15.48460413,"ECCENTRICITY":0.00081549,"INCLINATION":51.6316,"RA_OF_ASC_NODE":92.691,"ARG_OF_PERICENTER":159.9772,"MEAN_ANOMALY":200.1537,"EPHEMERIS_TYPE":0,"CLASSIFICATION_TYPE":"U","NORAD_CAT_ID":64751,"ELEMENT_SET_NO":999,"REV_AT_EPOCH":55446,"BSTAR":0.00016617363,"MEAN_MOTION_DOT":8.552e-5,"MEAN_MOTION_DDOT":0},{"OBJECT_NAME":"TIANZHOU-9","OBJECT_ID":"2025-149A","EPOCH":"2026-03-05T13:20:20.046912","MEAN_MOTION":15.60433514,"ECCENTRICITY":0.00068649,"INCLINATION":41.4657,"RA_OF_ASC_NODE":233.31,"ARG_OF_PERICENTER":247.1832,"MEAN_ANOMALY":112.8282,"EPHEMERIS_TYPE":0,"CLASSIFICATION_TYPE":"U","NORAD_CAT_ID":64786,"ELEMENT_SET_NO":999,"REV_AT_EPOCH":27559,"BSTAR":0.00023188471,"MEAN_MOTION_DOT":0.00019337,"MEAN_MOTION_DDOT":0},{"OBJECT_NAME":"PROGRESS-MS 32","OBJECT_ID":"2025-204A","EPOCH":"2026-03-05T13:50:21.177600","MEAN_MOTION":15.48460413,"ECCENTRICITY":0.00081549,"INCLINATION":51.6316,"RA_OF_ASC_NODE":92.691,"ARG_OF_PERICENTER":159.9772,"MEAN_ANOMALY":200.1537,"EPHEMERIS_TYPE":0,"CLASSIFICATION_TYPE":"U","NORAD_CAT_ID":65586,"ELEMENT_SET_NO":999,"REV_AT_EPOCH":55450,"BSTAR":0.00016617363,"MEAN_MOTION_DOT":8.552e-5,"MEAN_MOTION_DDOT":0},{"OBJECT_NAME":"CYGNUS NG-23","OBJECT_ID":"2025-208A","EPOCH":"2026-03-05T13:50:21.177600","MEAN_MOTION":15.48460413,"ECCENTRICITY":0.00081549,"INCLINATION":51.6316,"RA_OF_ASC_NODE":92.691,"ARG_OF_PERICENTER":159.9772,"MEAN_ANOMALY":200.1537,"EPHEMERIS_TYPE":0,"CLASSIFICATION_TYPE":"U","NORAD_CAT_ID":65616,"ELEMENT_SET_NO":999,"REV_AT_EPOCH":55451,"BSTAR":0.00016617363,"MEAN_MOTION_DOT":8.552e-5,"MEAN_MOTION_DDOT":0},{"OBJECT_NAME":"ISS OBJECT XK","OBJECT_ID":"1998-067XK","EPOCH":"2026-03-05T10:08:56.907168","MEAN_MOTION":16.09887648,"ECCENTRICITY":0.00048324,"INCLINATION":51.6145,"RA_OF_ASC_NODE":68.9863,"ARG_OF_PERICENTER":74.1567,"MEAN_ANOMALY":285.9979,"EPHEMERIS_TYPE":0,"CLASSIFICATION_TYPE":"U","NORAD_CAT_ID":65731,"ELEMENT_SET_NO":999,"REV_AT_EPOCH":2621,"BSTAR":0.0012996551,"MEAN_MOTION_DOT":0.0123534,"MEAN_MOTION_DDOT":0.00097089111},{"OBJECT_NAME":"YOTSUBA-KULOVER","OBJECT_ID":"1998-067XN","EPOCH":"2026-03-05T05:07:31.209024","MEAN_MOTION":15.78483235,"ECCENTRICITY":0.00060061,"INCLINATION":51.6207,"RA_OF_ASC_NODE":80.4741,"ARG_OF_PERICENTER":39.952,"MEAN_ANOMALY":320.1922,"EPHEMERIS_TYPE":0,"CLASSIFICATION_TYPE":"U","NORAD_CAT_ID":65941,"ELEMENT_SET_NO":999,"REV_AT_EPOCH":2279,"BSTAR":0.0011389985,"MEAN_MOTION_DOT":0.00206402,"MEAN_MOTION_DDOT":0},{"OBJECT_NAME":"E-KAGAKU-1","OBJECT_ID":"1998-067XQ","EPOCH":"2026-03-05T05:12:38.526912","MEAN_MOTION":15.78200281,"ECCENTRICITY":0.00061946,"INCLINATION":51.6242,"RA_OF_ASC_NODE":80.5167,"ARG_OF_PERICENTER":46.2025,"MEAN_ANOMALY":313.9487,"EPHEMERIS_TYPE":0,"CLASSIFICATION_TYPE":"U","NORAD_CAT_ID":65943,"ELEMENT_SET_NO":999,"REV_AT_EPOCH":2279,"BSTAR":0.0010948851,"MEAN_MOTION_DOT":0.00195636,"MEAN_MOTION_DDOT":0},{"OBJECT_NAME":"HRC MONOBLOCK CAMERA","OBJECT_ID":"1998-067XR","EPOCH":"2026-03-05T08:23:30.714720","MEAN_MOTION":15.61660295,"ECCENTRICITY":0.00034453,"INCLINATION":51.6271,"RA_OF_ASC_NODE":87.4281,"ARG_OF_PERICENTER":72.3165,"MEAN_ANOMALY":287.8204,"EPHEMERIS_TYPE":0,"CLASSIFICATION_TYPE":"U","NORAD_CAT_ID":66052,"ELEMENT_SET_NO":999,"REV_AT_EPOCH":2171,"BSTAR":0.00065456795,"MEAN_MOTION_DOT":0.00057407,"MEAN_MOTION_DDOT":0},{"OBJECT_NAME":"HTV-X1","OBJECT_ID":"2025-241A","EPOCH":"2026-03-05T13:50:21.177600","MEAN_MOTION":15.48460413,"ECCENTRICITY":0.00081549,"INCLINATION":51.6316,"RA_OF_ASC_NODE":92.691,"ARG_OF_PERICENTER":159.9772,"MEAN_ANOMALY":200.1537,"EPHEMERIS_TYPE":0,"CLASSIFICATION_TYPE":"U","NORAD_CAT_ID":66174,"ELEMENT_SET_NO":999,"REV_AT_EPOCH":55447,"BSTAR":0.00016617363,"MEAN_MOTION_DOT":8.552e-5,"MEAN_MOTION_DDOT":0}]
